[{"OBJECT_NAME":"YAOGAN-43 01F","OBJECT_ID":"2024-148F","EPOCH":"2026-03-10T00:23:08.877408","MEAN_MOTION":15.29824616,"ECCENTRICITY":0.00057048,"INCLINATION":34.9925,"RA_OF_ASC_NODE":59.8891,"ARG_OF_PERICENTER":18.4862,"MEAN_ANOMALY":341.6062,"EPHEMERIS_TYPE":0,"CLASSIFICATION_TYPE":"U","NORAD_CAT_ID":60463,"ELEMENT_SET_NO":999,"REV_AT_EPOCH":8707,"BSTAR":0.00058388219,"MEAN_MOTION_DOT":0.00017308,"MEAN_MOTION_DDOT":0},{"OBJECT_NAME":"STARLINK-32476","OBJECT_ID":"2024-184U","EPOCH":"2026-03-09T05:23:59.588736","MEAN_MOTION":15.30188754,"ECCENTRICITY":0.00014187,"INCLINATION":53.1614,"RA_OF_ASC_NODE":16.2567,"ARG_OF_PERICENTER":79.6804,"MEAN_ANOMALY":280.4357,"EPHEMERIS_TYPE":0,"CLASSIFICATION_TYPE":"U","NORAD_CAT_ID":61550,"ELEMENT_SET_NO":999,"REV_AT_EPOCH":7843,"BSTAR":0.00013413876,"MEAN_MOTION_DOT":3.614e-5,"MEAN_MOTION_DDOT":0}]
